O3B MPOWER F1           
1 54755U 22174A   24084.28458270 -.00000024  00000+0  00000+0 0  9991
2 54755   0.0652   5.3768 0006561   6.0118 162.5403  5.00114889 24591
